ONEWEB-0053             
1 45157U 20008AC  26197.97941049  .00000569  00000+0  15925-2 0  9993
2 45157  87.8815  30.3453 0001456  77.5507 282.5783 13.10373763311819
ONEWEB-0054             
1 45158U 20008AD  26197.55688798 -.00000457  00000+0 -13441-2 0  9996
2 45158  87.8816  30.4155 0001857  86.2918 273.8422 13.10373414311871
ONEWEB-0056             
1 45159U 20008AE  26197.98605905  .00000696  00000+0  19578-2 0  9993
2 45159  87.8822  30.3233 0002083  84.4122 275.7243 13.10372354312082
ONEWEB-0057             
1 45160U 20008AF  26198.23237301  .00000103  00000+0  26022-3 0  9991
2 45160  87.8816  30.2858 0001503  74.1637 285.9656 13.10369119312280
ONEWEB-0058             
1 45161U 20008AG  26197.91373302  .00000633  00000+0  17779-2 0  9994
2 45161  87.8811  30.3529 0001924  96.7431 263.3915 13.10373497312317
ONEWEB-0059             
1 45162U 20008AH  26197.98636077  .00000702  00000+0  19737-2 0  9996
2 45162  87.8816  30.3380 0001572  88.8853 271.2455 13.10373600312220
ONEWEB-0062             
1 45163U 20008AJ  26198.23888109 -.00000220  00000+0 -66554-3 0  9998
2 45163  87.8817  30.2775 0002083  95.0231 265.1135 13.10369226312122
ONEWEB-0065             
1 45164U 20008AK  26198.27280724 -.00000267  00000+0 -80054-3 0  9994
2 45164  87.8823  30.2785 0001803  78.1688 281.9642 13.10376426311823
ONEWEB-0066             
1 45424U 20020A   26198.20759334 -.00000523  00000+0 -15125-2 0  9999
2 45424  87.8882  15.0922 0001736  94.8705 265.2621 13.11420054306612
ONEWEB-0067             
1 45425U 20020B   26198.24532874  .00000423  00000+0  11583-2 0  9993
2 45425  87.8905  15.0127 0001733  86.6499 273.4827 13.11425775306672
ONEWEB-0080             
1 45426U 20020C   26198.24508114  .00000370  00000+0  10073-2 0  9998
2 45426  87.8895  15.0846 0002114  97.3231 262.8138 13.11417120306645
ONEWEB-0090             
1 45427U 20020D   26197.96869724 -.00000227  00000+0 -67705-3 0  9992
2 45427  87.8893  15.1435 0001917  93.0229 267.1119 13.11415304306570
ONEWEB-0061             
1 45428U 20020E   26198.00063596 -.00000047  00000+0 -16789-3 0  9998
2 45428  87.8892  15.1215 0001844  92.1059 268.0280 13.11418631306537
ONEWEB-0081             
1 45429U 20020F   26197.98211844 -.00000476  00000+0 -13794-2 0  9994
2 45429  87.8888  15.1342 0001632  90.9859 269.1456 13.11416850306643
ONEWEB-0069             
1 45430U 20020G   26198.21283630 -.00000636  00000+0 -18292-2 0  9991
2 45430  87.8891  15.0919 0001643  94.0316 266.0999 13.11418334306606
ONEWEB-0031             
1 45431U 20020H   26197.94315170  .00000532  00000+0  14665-2 0  9999
2 45431  87.8882  15.1484 0001994  94.8327 265.3029 13.11418109306554
ONEWEB-0027             
1 45432U 20020J   26197.95206710  .00000008  00000+0 -13852-4 0  9998
2 45432  87.9147 359.9439 0002289  92.7229 267.4164 13.17652018310277
ONEWEB-0064             
1 45433U 20020K   26198.24662958  .00000483  00000+0  13275-2 0  9995
2 45433  87.8887  15.0809 0002037  92.1074 268.0287 13.11416409306625
ONEWEB-0018             
1 45434U 20020L   26198.20239081 -.00000397  00000+0 -11551-2 0  9990
2 45434  87.8886  15.0893 0001676 102.8689 257.2626 13.11415176306567
ONEWEB-0083             
1 45435U 20020M   26197.96361360 -.00000015  00000+0 -77479-4 0  9999
2 45435  87.8892  15.1319 0001891  92.1568 267.9777 13.11415143306575
ONEWEB-0095             
1 45436U 20020N   26197.95514101  .00000355  00000+0  96573-3 0  9992
2 45436  87.8892  15.1426 0002279  76.0919 284.0462 13.11414618306574
ONEWEB-0092             
1 45437U 20020P   26198.21455059 -.00000631  00000+0 -18163-2 0  9996
2 45437  87.8891  15.0819 0001732  96.5758 263.5567 13.11413779306722
ONEWEB-0085             
1 45438U 20020Q   26197.50555499 -.00000051  00000+0 -17916-3 0  9999
2 45438  87.8885  15.2282 0001869  89.8606 270.2736 13.11415533306510
ONEWEB-0096             
1 45439U 20020R   26197.96516801 -.00000059  00000+0 -20120-3 0  9993
2 45439  87.8891  15.1343 0001930  88.5405 271.5944 13.11414582306560
ONEWEB-0037             
1 45440U 20020S   26197.53365254 -.00000280  00000+0 -82467-3 0  9990
2 45440  87.8903  15.1936 0001978  86.7245 273.4109 13.11416732306549
ONEWEB-0042             
1 45441U 20020T   26197.87857096  .00000363  00000+0  98868-3 0  9990
2 45441  87.8892  15.1481 0001751  90.2278 269.9051 13.11415827306558
ONEWEB-0098             
1 45442U 20020U   26198.25595256  .00000463  00000+0  12718-2 0  9991
2 45442  87.8890  15.0817 0001918  93.1148 267.0199 13.11414204306585
ONEWEB-0055             
1 45443U 20020V   26198.00573251  .00000229  00000+0  61071-3 0  9993
2 45443  87.8893  15.1306 0001924  91.8363 268.2985 13.11418578306522
ONEWEB-0093             
1 45444U 20020W   26197.53542794 -.00000287  00000+0 -85298-3 0  9992
2 45444  87.8895  15.2212 0001522  89.9122 270.2181 13.10895514306526
ONEWEB-0029             
1 45445U 20020X   26198.24168921  .00000359  00000+0  97733-3 0  9993
2 45445  87.8885  15.0836 0001611  93.2628 266.8685 13.11416769306593
